[{"OBJECT_NAME":"OBJECT A","OBJECT_ID":"2023-189A","EPOCH":"2026-03-09T22:59:06.381600","MEAN_MOTION":15.32403275,"ECCENTRICITY":0.00094831,"INCLINATION":97.4458,"RA_OF_ASC_NODE":86.5997,"ARG_OF_PERICENTER":249.5377,"MEAN_ANOMALY":110.4847,"EPHEMERIS_TYPE":0,"CLASSIFICATION_TYPE":"U","NORAD_CAT_ID":58502,"ELEMENT_SET_NO":999,"REV_AT_EPOCH":12601,"BSTAR":0.00019874471,"MEAN_MOTION_DOT":6.146e-5,"MEAN_MOTION_DDOT":0},{"OBJECT_NAME":"STARLINK-35270","OBJECT_ID":"2025-224A","EPOCH":"2026-03-09T03:56:38.059296","MEAN_MOTION":15.30180919,"ECCENTRICITY":0.00014123,"INCLINATION":53.1621,"RA_OF_ASC_NODE":13.8109,"ARG_OF_PERICENTER":108.1544,"MEAN_ANOMALY":251.9611,"EPHEMERIS_TYPE":0,"CLASSIFICATION_TYPE":"U","NORAD_CAT_ID":65882,"ELEMENT_SET_NO":999,"REV_AT_EPOCH":2474,"BSTAR":-0.00019196423,"MEAN_MOTION_DOT":-6.037e-5,"MEAN_MOTION_DDOT":0}]
